ISS OBJECT YC           
1 67686U 98067YC  26060.41246377  .00054052  00000+0  89126-3 0  9995
2 67686  51.6316 112.8884 0007665 122.7439 237.4290 15.51728286  3501
LEOPARD                 
1 67687U 98067YD  26060.73893028  .00043630  00000+0  73456-3 0  9991
2 67687  51.6315 111.3180 0007663 127.4895 232.6792 15.51238778  3472
ISS OBJECT YE           
1 67688U 98067YE  26060.41383434  .00050179  00000+0  83355-3 0  9997
2 67688  51.6318 112.8976 0007609 123.4438 236.7280 15.51553933  3429
CREW DRAGON 12          
1 67796U 26031A   26060.57520306  .00009927  00000+0  19202-3 0  9992
2 67796  51.6320 112.4722 0008284 146.1756 213.9762 15.48382986554812
